BEIDOU-2 IGSO-1 (C06)   
1 36828U 10036A   25199.42308933 -.00000077  00000+0  00000+0 0  9998
2 36828  54.2805 165.9813 0049431 218.0516 172.2824  1.00267490 54756
BEIDOU-2 G4 (C04)       
1 37210U 10057A   25199.48794706 -.00000109  00000+0  00000+0 0  9996
2 37210   2.8150  70.4174 0005599 169.1251  32.5938  1.00269790 53942
BEIDOU-2 IGSO-2 (C07)   
1 37256U 10068A   25199.63321372 -.00000202  00000+0  00000+0 0  9994
2 37256  48.1479 275.9644 0048199 214.0385 142.4662  1.00279164 53440
BEIDOU-2 IGSO-3 (C08)   
1 37384U 11013A   25199.55850227 -.00000175  00000+0  00000+0 0  9993
2 37384  61.9298  43.3081 0031567 175.4813  25.1974  1.00258146 52318
BEIDOU-2 IGSO-4 (C09)   
1 37763U 11038A   25198.77904976  .00000020  00000+0  00000+0 0  9993
2 37763  54.5827 168.6698 0144805 231.2278 271.5423  1.00271153 51291
BEIDOU-2 IGSO-5 (C10)   
1 37948U 11073A   25199.62740106 -.00000158  00000+0  00000+0 0  9998
2 37948  48.2849 275.6693 0109612 220.3527 122.4668  1.00280501 49780
BEIDOU-2 G5 (C05)       
1 38091U 12008A   25199.64574688  .00000061  00000+0  00000+0 0  9991
2 38091   2.7388  71.2151 0006168 257.8411 258.7952  1.00268649 49026
BEIDOU-2 M3 (C11)       
1 38250U 12018A   25197.59088567 -.00000073  00000+0  00000+0 0  9991
2 38250  56.0426 316.1678 0021840 266.1193  93.6500  1.86233518 89690
BEIDOU-2 M4 (C12)       
1 38251U 12018B   25197.52325298 -.00000072  00000+0  00000+0 0  9999
2 38251  55.9455 315.4114 0012757 265.7037  94.1703  1.86231913 89695
BEIDOU-2 M6 (C14)       
1 38775U 12050B   25198.84463465 -.00000046  00000+0  00000+0 0  9992
2 38775  56.2457  73.9742 0012952 353.7860   6.2614  1.86230954 87084
BEIDOU-2 G6 (C02)       
1 38953U 12059A   25199.63132119 -.00000172  00000+0  00000+0 0  9996
2 38953   3.5704  77.0323 0008340 320.5911 210.2991  1.00273858 46566
BEIDOU-3S IGSO-1S (C31) 
1 40549U 15019A   25199.61911486 -.00000191  00000+0  00000+0 0  9990
2 40549  49.8267 299.4798 0040941 193.5527 121.4676  1.00270542 37725
BEIDOU-3S M2S (C58)     
1 40748U 15037A   25199.33774461 -.00000083  00000+0  00000+0 0  9990
2 40748  55.1644 313.5213 0010028 250.0773 109.8328  1.86229038 67905
BEIDOU-3S M1S (C57)     
1 40749U 15037B   25197.43988993 -.00000071  00000+0  00000+0 0  9994
2 40749  55.1629 313.5777 0002632  20.1796 339.8528  1.86253783 67874
BEIDOU-3S IGSO-2S (C56) 
1 40938U 15053A   25199.62793942 -.00000112  00000+0  00000+0 0  9999
2 40938  49.7367 262.7467 0060638 189.9136 164.6844  1.00259665 36002
BEIDOU-2 IGSO-6 (C13)   
1 41434U 16021A   25198.36009061 -.00000154  00000+0  00000+0 0  9995
2 41434  59.7538  41.3770 0054067 227.8786 251.4148  1.00281383 34120
BEIDOU-2 G7 (C03)       
1 41586U 16037A   25199.58821466 -.00000349  00000+0  00000+0 0  9992
2 41586   1.8384  69.2473 0009225   9.2260 180.3762  1.00276293  3547
BEIDOU-3 M1 (C19)       
1 43001U 17069A   25194.85158581 -.00000018  00000+0  00000+0 0  9991
2 43001  56.3907  74.2545 0009317 320.5809  39.4262  1.86231318 52303
BEIDOU-3 M2 (C20)       
1 43002U 17069B   25199.08527562 -.00000047  00000+0  00000+0 0  9993
2 43002  56.3940  74.1497 0008001 350.5337   9.5140  1.86230757 52370
BEIDOU-3 M7 (C27)       
1 43107U 18003A   25198.29332388 -.00000077  00000+0  00000+0 0  9993
2 43107  54.6236 313.9739 0004060  92.9265 267.1402  1.86232460 51124
BEIDOU-3 M8 (C28)       
1 43108U 18003B   25198.77395872 -.00000080  00000+0  00000+0 0  9998
2 43108  54.6161 313.9409 0003423 250.9471 109.0350  1.86230898 51133
BEIDOU-3 M4 (C22)       
1 43207U 18018A   25191.16109674 -.00000032  00000+0  00000+0 0  9990
2 43207  56.3462  74.4525 0006939  18.5688 341.5209  1.86231401 50379
BEIDOU-3 M3 (C21)       
1 43208U 18018B   25197.13416454 -.00000032  00000+0  00000+0 0  9991
2 43208  56.3511  74.2583 0007498 338.5612  21.4765  1.86230994 50489
BEIDOU-3 M9 (C29)       
1 43245U 18029A   25196.81446011 -.00000067  00000+0  00000+0 0  9998
2 43245  54.4972 311.6942 0001233 198.3877 161.6331  1.86232546 49639
BEIDOU-3 M10 (C30)      
1 43246U 18029B   25198.89552320 -.00000079  00000+0  00000+0 0  9993
2 43246  54.4926 311.6487 0002962  25.4197 334.6162  1.86229063 49654
BEIDOU-2 IGSO-7 (C16)   
1 43539U 18057A   25199.58079434 -.00000076  00000+0  00000+0 0  9993
2 43539  55.1703 165.9454 0089874 236.4988 212.5285  1.00247007 25774
BEIDOU-3 M5 (C23)       
1 43581U 18062A   25199.12048460  .00000114  00000+0  00000+0 0  9993
2 43581  54.1008 193.6614 0005652 284.1216  75.8237  1.86228473 47412
BEIDOU-3 M6 (C24)       
1 43582U 18062B   25198.98439950  .00000114  00000+0  00000+0 0  9995
2 43582  54.1005 193.6550 0004769   2.3704 357.6397  1.86229406 47414
BEIDOU-3 M12 (C26)      
1 43602U 18067A   25198.38358693  .00000112  00000+0  00000+0 0  9999
2 43602  54.1938 192.3930 0007345  23.9965 336.0423  1.86227666 46888
BEIDOU-3 M11 (C25)      
1 43603U 18067B   25199.05467897  .00000114  00000+0  00000+0 0  9994
2 43603  54.1910 192.3345 0004216   6.6488 353.3627  1.86227156 46928
BEIDOU-3 M13 (C32)      
1 43622U 18072A   25199.01299709 -.00000047  00000+0  00000+0 0  9998
2 43622  56.3263  73.7115 0005903 325.7165  34.3085  1.86231327 46437
BEIDOU-3 M14 (C33)      
1 43623U 18072B   25198.34152314 -.00000042  00000+0  00000+0 0  9999
2 43623  56.3276  73.7275 0005105   3.1644 356.9038  1.86231315 46418
BEIDOU-3 M16 (C35)      
1 43647U 18078A   25197.42712337 -.00000071  00000+0  00000+0 0  9998
2 43647  54.3930 311.7382 0006385  31.1704 328.8918  1.86232158 45906
BEIDOU-3 M15 (C34)      
1 43648U 18078B   25198.09328804 -.00000075  00000+0  00000+0 0  9999
2 43648  54.3880 311.7165 0003346  48.8853 311.1668  1.86232238 45933
BEIDOU-3 G1 (C59)       
1 43683U 18085A   25199.51315133 -.00000273  00000+0  00000+0 0  9995
2 43683   2.7423 107.3517 0004142 356.1038 157.9058  1.00272166 24719
BEIDOU-3 M17 (C36)      
1 43706U 18093A   25198.24918715  .00000112  00000+0  00000+0 0  9995
2 43706  54.1841 193.6584 0010284 286.7209  73.1724  1.86228122 45285
BEIDOU-3 M18 (C37)      
1 43707U 18093B   25198.64829991  .00000113  00000+0  00000+0 0  9998
2 43707  54.1849 193.6367 0008203 312.9714  46.9669  1.86229682 45305
BEIDOU-3 IGSO-1 (C38)   
1 44204U 19023A   25199.55613456 -.00000214  00000+0  00000+0 0  9996
2 44204  58.2223  41.0932 0023560 215.8182 358.1563  1.00287601 23012
BEIDOU-2 G8 (C01)       
1 44231U 19027A   25199.59702429 -.00000243  00000+0  00000+0 0  9995
2 44231   1.7675  75.2135 0003681 248.6990 332.2035  1.00271471 22736
BEIDOU-3 IGSO-2 (C39)   
1 44337U 19035A   25199.29491639 -.00000092  00000+0  00000+0 0  9998
2 44337  55.2157 161.7965 0035661 210.7110 149.1234  1.00260822 22320
BEIDOU-3 M24 (C46)      
1 44542U 19061A   25198.18247670  .00000112  00000+0  00000+0 0  9998
2 44542  54.4117 194.0254 0008245 350.5843   9.4070  1.86229172 39555
BEIDOU-3 M23 (C45)      
1 44543U 19061B   25197.14512469  .00000106  00000+0  00000+0 0  9998
2 44543  54.4105 194.0288 0005685 329.9835 327.2813  1.86229220 39534
BEIDOU-3 IGSO-3 (C40)   
1 44709U 19073A   25198.64106585 -.00000200  00000+0  00000+0 0  9995
2 44709  55.3723 284.5130 0045193 189.4600 170.5299  1.00289577 21100
BEIDOU-3 M22 (C44)      
1 44793U 19078A   25196.41357157 -.00000065  00000+0  00000+0 0  9998
2 44793  54.2405 311.6574 0005344  40.8175 319.2478  1.86232136 38374
BEIDOU-3 M21 (C43)      
1 44794U 19078B   25198.15862152 -.00000075  00000+0  00000+0 0  9999
2 44794  54.2124 311.5642 0003285  38.4793 321.5673  1.86227636 38416
BEIDOU-3 M19 (C41)      
1 44864U 19090A   25197.63872817 -.00000036  00000+0  00000+0 0  9999
2 44864  56.2589  73.9068 0016645 291.7319 274.0735  1.86231490 37989
BEIDOU-3 M20 (C42)      
1 44865U 19090B   25197.35733166 -.00000034  00000+0  00000+0 0  9990
2 44865  56.2603  73.9502 0014523 306.5368 160.2440  1.86231393 37961
BEIDOU-3 G2 (C60)       
1 45344U 20017A   25199.56294484 -.00000137  00000+0  00000+0 0  9998
2 45344   2.9256  41.0890 0001590  81.7275  96.4816  1.00271611 19916
BEIDOU-3 G3 (C61)       
1 45807U 20040A   25199.63370532 -.00000349  00000+0  00000+0 0  9990
2 45807   1.6332  64.7302 0004119 348.7013 221.8634  1.00266569 18723
BEIDOU-3 G4 (C62)       
1 56564U 23066A   25199.51713801 -.00000105  00000+0  00000+0 0  9990
2 56564   1.1514 293.5459 0006677 194.7914 154.3578  1.00269731  8064
BEIDOU-3 M28 (C50)      
1 58654U 23207A   25199.31200002 -.00000050  00000+0  00000+0 0  9990
2 58654  55.4500  73.5922 0002108 351.7528   8.3053  1.86229904 10628
BEIDOU-3 M26 (C48)      
1 58655U 23207B   25199.11092072 -.00000049  00000+0  00000+0 0  9993
2 58655  55.4518  73.5850 0001815 305.5731  54.4720  1.86231559 10605
BEIDOU-3 M25 (C47)      
1 61186U 24168B   25198.32607677 -.00000077  00000+0  00000+0 0  9999
2 61186  54.7691 313.8607 0003701 282.1063  29.2826  1.86229851  5542
BEIDOU-3 M27 (C49)      
1 61187U 24168C   25198.23217406 -.00000077  00000+0  00000+0 0  9997
2 61187  54.7647 313.8481 0000733  23.9054 359.4206  1.86229899  5572
